{"type":"FeatureCollection","features":[{"type":"Feature","properties":{"id":"toMarathahalli-silkBoard-agara","kind":"main","lanes":3},"geometry":{"type":"LineString","coordinates":[[77.6228281,12.9173744],[77.6229259,12.9173954],[77.623148,12.9174482],[77.623628,12.9175615],[77.6243834,12.9176822],[77.6247366,12.9177084],[77.6250219,12.9177105],[77.625459,12.9177069],[77.6257316,12.9176757],[77.6259616,12.91763],[77.6267966,12.9174011],[77.6283946,12.9169273],[77.6285971,12.9168787],[77.6288171,12.9168603],[77.629255,12.9168241],[77.6298974,12.9167787],[77.6306363,12.91673],[77.6310658,12.9167093],[77.6322048,12.9165984],[77.6322913,12.9165892],[77.6323695,12.9165808],[77.6332137,12.916497],[77.6342411,12.9163977],[77.6347469,12.9163586],[77.6349283,12.9163445],[77.6350673,12.9163386],[77.6355548,12.9163178],[77.6365988,12.9162034],[77.6371129,12.9161384],[77.6376676,12.916066],[77.6378503,12.9160405],[77.6380362,12.9160363],[77.6383271,12.9160513],[77.6386278,12.9161044],[77.6388181,12.9161633],[77.6393214,12.9163443],[77.6395229,12.916419],[77.6397546,12.9165296],[77.6399923,12.9166649],[77.640176,12.9168025],[77.6403885,12.9169845],[77.6405148,12.9171],[77.6407708,12.9172952],[77.6410422,12.9175032],[77.64108,12.9175322],[77.6415843,12.9180354],[77.6417881,12.9182535],[77.6420024,12.9184929],[77.6421682,12.9187062],[77.6429105,12.9197116],[77.6430337,12.9198785],[77.6446581,12.9218348],[77.6447993,12.9219722],[77.6448627,12.9220342],[77.6449153,12.9220812],[77.6461505,12.9232131],[77.6463877,12.9234243],[77.6466603,12.9236461],[77.6473064,12.9240365],[77.6473465,12.9240607],[77.6474166,12.9240899],[77.6475553,12.9241578],[77.6477617,12.9242507],[77.6478808,12.9242911],[77.6481059,12.9243535],[77.6484131,12.9244093],[77.6487145,12.924448],[77.6498597,12.9245269],[77.6501825,12.9245437]]}},{"type":"Feature","properties":{"id":"toMarathahalli-silkBoard-agara-flyover","kind":"flyover","lanes":2},"geometry":{"type":"LineString","coordinates":[[77.64465035884686,12.921825477162093],[77.6446581,12.9218348],[77.6447993,12.9219722],[77.6448627,12.9220342],[77.6449153,12.9220812],[77.6461505,12.9232131],[77.6463877,12.9234243],[77.6466603,12.9236461],[77.6473064,12.9240365],[77.6473465,12.9240607],[77.6474166,12.9240899],[77.6475553,12.9241578],[77.6477617,12.9242507],[77.6478808,12.9242911],[77.6481059,12.9243535],[77.6484131,12.9244093],[77.6487145,12.924448],[77.6498597,12.9245269],[77.6501825,12.9245437]]}},{"type":"Feature","properties":{"id":"toMarathahalli-silkBoard-agara-ramp","kind":"ramp","lanes":1},"geometry":{"type":"LineString","coordinates":[[77.62253892278154,12.917399790828915],[77.6228211523751,12.91740513916169]]}},{"type":"Feature","properties":{"id":"toMarathahalli-agara-iblur","kind":"main","lanes":3},"geometry":{"type":"LineString","coordinates":[[77.6501825,12.9245437],[77.6505133,12.9245341],[77.6508026,12.9245087],[77.651232,12.9244416],[77.6519763,12.9242979],[77.6530883,12.924073],[77.6541061,12.923864],[77.6543918,12.9237946],[77.6550183,12.9236734],[77.6553864,12.923603],[77.6556513,12.9235332],[77.6557534,12.9234971],[77.6565126,12.9232519],[77.659737,12.9221233],[77.6600035,12.9220272],[77.6602414,12.9219543],[77.6622734,12.9214429],[77.6629056,12.921278],[77.6630783,12.9212384],[77.6635896,12.9211189],[77.6639564,12.9210171],[77.6643062,12.9209196],[77.6646317,12.9208374],[77.6647433,12.9208113],[77.6648463,12.9208114],[77.6649445,12.9208265],[77.6650507,12.9208412],[77.6651733,12.9208528],[77.6652688,12.9208738],[77.6653164,12.9208872],[77.6654482,12.9209153],[77.6655585,12.9209342]]}},{"type":"Feature","properties":{"id":"toMarathahalli-agara-iblur-flyover","kind":"flyover","lanes":2},"geometry":{"type":"LineString","coordinates":[[77.6593176839381,12.922270068424352],[77.659737,12.9221233],[77.6600035,12.9220272],[77.6602414,12.9219543],[77.6622734,12.9214429],[77.6629056,12.921278],[77.6630783,12.9212384],[77.6635896,12.9211189],[77.6639564,12.9210171],[77.6643062,12.9209196],[77.6646317,12.9208374],[77.6647433,12.9208113],[77.6648463,12.9208114],[77.6649445,12.9208265],[77.6650507,12.9208412],[77.6651733,12.9208528],[77.6652688,12.9208738],[77.6653164,12.9208872],[77.6654482,12.9209153],[77.6655585,12.9209342]]}},{"type":"Feature","properties":{"id":"toMarathahalli-agara-iblur-ramp","kind":"ramp","lanes":1},"geometry":{"type":"LineString","coordinates":[[77.64990842228579,12.924637127246688],[77.6501834611362,12.924575162292177]]}},{"type":"Feature","properties":{"id":"toMarathahalli-iblur-bellandur","kind":"main","lanes":3},"geometry":{"type":"LineString","coordinates":[[77.6655585,12.9209342],[77.6659924,12.9211461],[77.6662615,12.9212738],[77.6680451,12.922053],[77.6704187,12.923181],[77.6725796,12.9241634],[77.6726301,12.9241861],[77.6726684,12.9242033],[77.6735137,12.9245832],[77.6738264,12.924724],[77.673989,12.9248019],[77.6741134,12.9248645],[77.674278,12.9249455],[77.6747506,12.9251913],[77.6752903,12.9254641],[77.6756063,12.92562],[77.6763224,12.9259834],[77.6770573,12.9263389],[77.6786437,12.9270879]]}},{"type":"Feature","properties":{"id":"toMarathahalli-iblur-bellandur-flyover","kind":"flyover","lanes":2},"geometry":{"type":"LineString","coordinates":[[77.67285936399148,12.92428912422851],[77.6735137,12.9245832],[77.6738264,12.924724],[77.673989,12.9248019],[77.6741134,12.9248645],[77.674278,12.9249455],[77.6747506,12.9251913],[77.6752903,12.9254641],[77.6756063,12.92562],[77.6763224,12.9259834],[77.6770573,12.9263389],[77.6786437,12.9270879]]}},{"type":"Feature","properties":{"id":"toMarathahalli-iblur-bellandur-ramp","kind":"ramp","lanes":1},"geometry":{"type":"LineString","coordinates":[[77.66527175561932,12.920889724989507],[77.6655440335099,12.920962341392595]]}},{"type":"Feature","properties":{"id":"toMarathahalli-bellandur-kadubeesanahalli","kind":"main","lanes":3},"geometry":{"type":"LineString","coordinates":[[77.6786437,12.9270879],[77.6795192,12.927507],[77.679761,12.9276205],[77.680202,12.9278304],[77.6805921,12.9280152],[77.6807901,12.928109],[77.6813432,12.9283711],[77.6817242,12.9285307],[77.6819101,12.9286159],[77.6825992,12.9289641],[77.6833531,12.9293316],[77.6843262,12.9297729],[77.6844937,12.9298535],[77.6846554,12.9299371],[77.6848208,12.9300291],[77.6849769,12.9301226],[77.6852379,12.9302977],[77.685388,12.9304048],[77.6856706,12.9306355],[77.6858116,12.930757],[77.6862527,12.9311544],[77.6864838,12.9313583],[77.686987,12.9317954],[77.6872753,12.9320458],[77.68733,12.9320929],[77.6880915,12.9327487],[77.6894086,12.9339593],[77.6896834,12.9342068],[77.6899563,12.9344583],[77.6903922,12.9348599],[77.6904581,12.9349227],[77.6910068,12.9354262],[77.6911134,12.9355201],[77.6924183,12.9367277],[77.6931763,12.9374551],[77.6943844,12.9385968],[77.6946419,12.9388739]]}},{"type":"Feature","properties":{"id":"toMarathahalli-bellandur-kadubeesanahalli-flyover","kind":"flyover","lanes":2},"geometry":{"type":"LineString","coordinates":[[77.68999969237251,12.934498277923373],[77.6903922,12.9348599],[77.6904581,12.9349227],[77.6910068,12.9354262],[77.6911134,12.9355201],[77.6924183,12.9367277],[77.6931763,12.9374551],[77.6943844,12.9385968],[77.6946419,12.9388739]]}},{"type":"Feature","properties":{"id":"toMarathahalli-bellandur-kadubeesanahalli-ramp","kind":"ramp","lanes":1},"geometry":{"type":"LineString","coordinates":[[77.67835659499262,12.927045647329136],[77.67862946305247,12.927116152552065]]}},{"type":"Feature","properties":{"id":"toMarathahalli-kadubeesanahalli-marathahalli","kind":"main","lanes":3},"geometry":{"type":"LineString","coordinates":[[77.6946419,12.9388739],[77.6948818,12.9391416],[77.695249,12.9396463],[77.6960769,12.9409927],[77.6962219,12.9412314],[77.6963206,12.9413591],[77.696342,12.9413926],[77.6967186,12.9420199],[77.6967598,12.9420906],[77.6971235,12.9427148],[77.6972426,12.9429227],[77.6973575,12.9431597],[77.6974798,12.9434401],[77.6976307,12.9438616],[77.6979027,12.9446434],[77.6979945,12.944896],[77.6982555,12.9456419],[77.6983099,12.9457975],[77.6983397,12.9458825],[77.6984464,12.9461947],[77.6986454,12.9468495],[77.6988799,12.9475122],[77.6989918,12.9478403],[77.6990227,12.9479427],[77.6990541,12.9480686],[77.6991376,12.9484036],[77.6991982,12.9486586],[77.6992246,12.94877],[77.6992843,12.9490868],[77.6994257,12.9499234],[77.6997166,12.9516441],[77.699806,12.9520254],[77.700024,12.9529057],[77.7000909,12.9531761],[77.7001447,12.9534147],[77.7002819,12.9539913],[77.7003591,12.954278],[77.7005975,12.9552616],[77.7006431,12.9554367],[77.7006887,12.9555883],[77.7007423,12.955753],[77.7008432,12.9560428],[77.7009354,12.9563176],[77.7009998,12.9565607],[77.701043,12.9567742]]}},{"type":"Feature","properties":{"id":"toMarathahalli-kadubeesanahalli-marathahalli-flyover","kind":"flyover","lanes":2},"geometry":{"type":"LineString","coordinates":[[77.69954947486987,12.950655539630745],[77.6997166,12.9516441],[77.699806,12.9520254],[77.700024,12.9529057],[77.7000909,12.9531761],[77.7001447,12.9534147],[77.7002819,12.9539913],[77.7003591,12.954278],[77.7005975,12.9552616],[77.7006431,12.9554367],[77.7006887,12.9555883],[77.7007423,12.955753],[77.7008432,12.9560428],[77.7009354,12.9563176],[77.7009998,12.9565607],[77.701043,12.9567742]]}},{"type":"Feature","properties":{"id":"toMarathahalli-kadubeesanahalli-marathahalli-ramp","kind":"ramp","lanes":1},"geometry":{"type":"LineString","coordinates":[[77.69439377442616,12.938726897696984],[77.69461757529851,12.938894605736197]]}},{"type":"Feature","properties":{"id":"toSilkBoard-agara-silkBoard","kind":"main","lanes":3},"geometry":{"type":"LineString","coordinates":[[77.6501883,12.9243697],[77.6498746,12.924356],[77.6487252,12.9242786],[77.6484417,12.9242385],[77.648086,12.9241695],[77.6478897,12.9240974],[77.6475028,12.9239539],[77.6474406,12.9239272],[77.6472923,12.9238729],[77.6470719,12.9237689],[77.6468667,12.9236504],[77.6466165,12.9234869],[77.6464274,12.9233333],[77.6450577,12.922103],[77.6449766,12.9220264],[77.6449199,12.9219742],[77.6448271,12.9218808],[77.6446683,12.921713],[77.6432167,12.9199598],[77.6431146,12.9198251],[77.6425007,12.9189907],[77.6422358,12.918636],[77.6420374,12.9183781],[77.641858,12.9181858],[77.6416158,12.917917],[77.6410596,12.9173675],[77.6409581,12.917276],[77.6407524,12.9170896],[77.6405404,12.9168706],[77.6402516,12.916636],[77.6400454,12.9164892],[77.6397255,12.9163044],[77.639522,12.9162211],[77.6393192,12.9161435],[77.638971,12.9160148],[77.638796,12.9159599],[77.638618,12.9159135],[77.6383242,12.9158631],[77.6380211,12.9158531],[77.6378374,12.9158585],[77.6376604,12.915876],[77.6371053,12.9159544],[77.6355416,12.9161318],[77.6354011,12.9161603],[77.6349622,12.916221],[77.6324797,12.9164688],[77.632431,12.9164748],[77.6323671,12.9164827],[77.6322917,12.9164911],[77.6317612,12.9165405],[77.6309395,12.9166138],[77.6299413,12.9166561],[77.6293197,12.9166887],[77.6292164,12.9166941],[77.6287887,12.9167297],[77.6285856,12.9167498],[77.6283794,12.9168049],[77.6259953,12.9175253],[77.625756,12.9175781],[77.625555,12.9176102],[77.6253351,12.9176182],[77.6251311,12.9176224],[77.6249271,12.9176164],[77.6247091,12.9176109],[77.6244453,12.9175581],[77.6244169,12.9175524],[77.6242664,12.9175302],[77.6238988,12.9174761],[77.6238004,12.9174551],[77.6235614,12.9174042],[77.6233051,12.9173496],[77.6231607,12.9173238],[77.6229515,12.9172887],[77.6229259,12.9173954]]}},{"type":"Feature","properties":{"id":"toSilkBoard-agara-silkBoard-ramp","kind":"ramp","lanes":1},"geometry":{"type":"LineString","coordinates":[[77.65046875519361,12.924296426904979],[77.65018974557802,12.924338255314586]]}},{"type":"Feature","properties":{"id":"toSilkBoard-iblur-agara","kind":"main","lanes":3},"geometry":{"type":"LineString","coordinates":[[77.665695,12.9208011],[77.6654636,12.9207104],[77.6652808,12.9206571],[77.6651394,12.9206429],[77.6649773,12.9206326],[77.6647695,12.9206449],[77.6645539,12.9206777],[77.6636681,12.9209154],[77.6629848,12.921113],[77.6627792,12.9211689],[77.6625996,12.9212181],[77.662394,12.9212807],[77.66226,12.9213196],[77.6620564,12.9213728],[77.6602077,12.9218173],[77.6599561,12.9218994],[77.6571955,12.9228942],[77.6564713,12.9231438],[77.6559408,12.9233113],[77.6556263,12.9234122],[77.655362,12.923474],[77.6549903,12.9235456],[77.6548266,12.9235804],[77.6543682,12.9236679],[77.6540371,12.9237179],[77.6530518,12.9239028],[77.6519362,12.9241272],[77.650785,12.9243372],[77.6505067,12.9243654],[77.6501883,12.9243697]]}},{"type":"Feature","properties":{"id":"toSilkBoard-iblur-agara-flyover","kind":"flyover","lanes":2},"geometry":{"type":"LineString","coordinates":[[77.65650693674874,12.923131517574587],[77.6564713,12.9231438],[77.6559408,12.9233113],[77.6556263,12.9234122],[77.655362,12.923474],[77.6549903,12.9235456],[77.6548266,12.9235804],[77.6543682,12.9236679],[77.6540371,12.9237179],[77.6530518,12.9239028],[77.6519362,12.9241272],[77.650785,12.9243372],[77.6505067,12.9243654],[77.6501883,12.9243697]]}},{"type":"Feature","properties":{"id":"toSilkBoard-iblur-agara-ramp","kind":"ramp","lanes":1},"geometry":{"type":"LineString","coordinates":[[77.66598452113855,12.92082249623711],[77.66570704902229,12.92077189669156]]}},{"type":"Feature","properties":{"id":"toSilkBoard-bellandur-iblur","kind":"main","lanes":3},"geometry":{"type":"LineString","coordinates":[[77.6787585,12.9269214],[77.6771438,12.9261543],[77.6762528,12.9257328],[77.6753544,12.9252815],[77.6743673,12.9247796],[77.6741772,12.9247011],[77.6740256,12.924633],[77.673894,12.9245828],[77.6737739,12.924529],[77.6735108,12.9244158],[77.6727392,12.924084],[77.6726685,12.9240522],[77.6717518,12.9236517],[77.6704761,12.9230635],[77.6698691,12.9227855],[77.6686777,12.9222205],[77.6680325,12.9219032],[77.6678812,12.9218265],[77.6665944,12.9212222],[77.665695,12.9208011]]}},{"type":"Feature","properties":{"id":"toSilkBoard-bellandur-iblur-flyover","kind":"flyover","lanes":2},"geometry":{"type":"LineString","coordinates":[[77.67151006815315,12.923540242233825],[77.6704761,12.9230635],[77.6698691,12.9227855],[77.6686777,12.9222205],[77.6680325,12.9219032],[77.6678812,12.9218265],[77.6665944,12.9212222],[77.665695,12.9208011]]}},{"type":"Feature","properties":{"id":"toSilkBoard-bellandur-iblur-ramp","kind":"ramp","lanes":1},"geometry":{"type":"LineString","coordinates":[[77.67904573362942,12.926962812656324],[77.67877264987722,12.926893105930015]]}},{"type":"Feature","properties":{"id":"toSilkBoard-kadubeesanahalli-bellandur","kind":"main","lanes":3},"geometry":{"type":"LineString","coordinates":[[77.6949622,12.9389359],[77.6947172,12.9386544],[77.6943202,12.9382675],[77.6937945,12.9377708],[77.6936575,12.9376496],[77.6933901,12.9374131],[77.6927441,12.9368624],[77.6925884,12.9367296],[77.6922522,12.9364193],[77.6919069,12.9360892],[77.6917455,12.93594],[77.6912039,12.9354307],[77.6910678,12.9353086],[77.690477,12.9347802],[77.6904559,12.9347613],[77.6900523,12.9343866],[77.6897702,12.9341247],[77.688613,12.933062],[77.6884336,12.9328978],[77.6877366,12.9322663],[77.6874519,12.9320032],[77.6873446,12.931904],[77.6872247,12.9317906],[77.6870883,12.9316617],[77.6859061,12.9305942],[77.6857689,12.9304804],[77.6854791,12.9302495],[77.6853281,12.9301464],[77.6850634,12.9299741],[77.6849048,12.9298784],[77.6845781,12.9297067],[77.6844011,12.9296237],[77.6835263,12.9291972],[77.6830926,12.9289877],[77.6824197,12.9286801],[77.6822419,12.928596],[77.6821232,12.9285399],[77.6819058,12.9284422],[77.6818124,12.9284002],[77.6816974,12.9283494],[77.6814491,12.9282322],[77.6805853,12.9278118],[77.6802049,12.9276259],[77.6796103,12.927337],[77.6787585,12.9269214]]}},{"type":"Feature","properties":{"id":"toSilkBoard-kadubeesanahalli-bellandur-flyover","kind":"flyover","lanes":2},"geometry":{"type":"LineString","coordinates":[[77.6845557337917,12.929696211891022],[77.6844011,12.9296237],[77.6835263,12.9291972],[77.6830926,12.9289877],[77.6824197,12.9286801],[77.6822419,12.928596],[77.6821232,12.9285399],[77.6819058,12.9284422],[77.6818124,12.9284002],[77.6816974,12.9283494],[77.6814491,12.9282322],[77.6805853,12.9278118],[77.6802049,12.9276259],[77.6796103,12.927337],[77.6787585,12.9269214]]}},{"type":"Feature","properties":{"id":"toSilkBoard-kadubeesanahalli-bellandur-ramp","kind":"ramp","lanes":1},"geometry":{"type":"LineString","coordinates":[[77.69520812004977,12.939086381577463],[77.69498682918176,12.93891553901738]]}},{"type":"Feature","properties":{"id":"toSilkBoard-marathahalli-kadubeesanahalli","kind":"main","lanes":3},"geometry":{"type":"LineString","coordinates":[[77.7011743,12.9567622],[77.7010685,12.9563408],[77.7009853,12.9560611],[77.7009132,12.9558492],[77.700861,12.9556621],[77.7008196,12.9555166],[77.70078,12.9553652],[77.7007318,12.9551885],[77.7004863,12.9542547],[77.7004669,12.9541656],[77.7003042,12.9534482],[77.7000543,12.9524376],[77.6999703,12.9521804],[77.699924,12.9520018],[77.6996083,12.9502273],[77.6995123,12.9496882],[77.6993624,12.9488458],[77.6993,12.9485568],[77.6992423,12.9483213],[77.6991604,12.9480295],[77.6991016,12.94782],[77.6987508,12.9467376],[77.6985419,12.946124],[77.6985278,12.9460851],[77.6984248,12.9458008],[77.698388,12.9456991],[77.698351,12.945597],[77.6977455,12.9438331],[77.6977263,12.943783],[77.6975061,12.9432083],[77.6974505,12.94307],[77.6973929,12.9429462],[77.6973299,12.9428175],[77.6968518,12.9420164],[77.6967801,12.9418963],[77.6966095,12.9416167],[77.6964809,12.9413486],[77.6963964,12.9412043],[77.696385,12.9411823],[77.6962272,12.9408868],[77.6960019,12.9404921],[77.6955381,12.9397457],[77.6951759,12.9392056],[77.6949622,12.9389359]]}},{"type":"Feature","properties":{"id":"toSilkBoard-marathahalli-kadubeesanahalli-flyover","kind":"flyover","lanes":2},"geometry":{"type":"LineString","coordinates":[[77.69796690251793,12.94447807423846],[77.6977455,12.9438331],[77.6977263,12.943783],[77.6975061,12.9432083],[77.6974505,12.94307],[77.6973929,12.9429462],[77.6973299,12.9428175],[77.6968518,12.9420164],[77.6967801,12.9418963],[77.6966095,12.9416167],[77.6964809,12.9413486],[77.6963964,12.9412043],[77.696385,12.9411823],[77.6962272,12.9408868],[77.6960019,12.9404921],[77.6955381,12.9397457],[77.6951759,12.9392056],[77.6949622,12.9389359]]}},{"type":"Feature","properties":{"id":"toSilkBoard-marathahalli-kadubeesanahalli-ramp","kind":"ramp","lanes":1},"geometry":{"type":"LineString","coordinates":[[77.70132525195423,12.957003960863275],[77.70120567312726,12.956754719202811]]}},{"type":"Feature","properties":{"id":"silkBoard","name":"Central Silk Board"},"geometry":{"type":"Point","coordinates":[77.6228,12.9174]}},{"type":"Feature","properties":{"id":"agara","name":"Agara"},"geometry":{"type":"Point","coordinates":[77.6502,12.9245]}},{"type":"Feature","properties":{"id":"iblur","name":"Iblur"},"geometry":{"type":"Point","coordinates":[77.6656,12.921]}},{"type":"Feature","properties":{"id":"bellandur","name":"Bellandur"},"geometry":{"type":"Point","coordinates":[77.6782,12.9269]}},{"type":"Feature","properties":{"id":"kadubeesanahalli","name":"Kadubeesanahalli"},"geometry":{"type":"Point","coordinates":[77.6946,12.9389]}},{"type":"Feature","properties":{"id":"marathahalli","name":"Marathahalli"},"geometry":{"type":"Point","coordinates":[77.7011,12.9569]}},{"type":"Feature","properties":{"id":"source-toMarathahalli-silkBoard","kind":"source"},"geometry":{"type":"Point","coordinates":[77.6228281,12.9173744]}},{"type":"Feature","properties":{"id":"source-toMarathahalli-agara","kind":"source"},"geometry":{"type":"Point","coordinates":[77.64990842228579,12.924637127246688]}},{"type":"Feature","properties":{"id":"source-toMarathahalli-iblur","kind":"source"},"geometry":{"type":"Point","coordinates":[77.66527175561932,12.920889724989507]}},{"type":"Feature","properties":{"id":"source-toMarathahalli-bellandur","kind":"source"},"geometry":{"type":"Point","coordinates":[77.67835659499262,12.927045647329136]}},{"type":"Feature","properties":{"id":"source-toMarathahalli-kadubeesanahalli","kind":"source"},"geometry":{"type":"Point","coordinates":[77.69439377442616,12.938726897696984]}},{"type":"Feature","properties":{"id":"source-toSilkBoard-agara","kind":"source"},"geometry":{"type":"Point","coordinates":[77.65046875519361,12.924296426904979]}},{"type":"Feature","properties":{"id":"source-toSilkBoard-iblur","kind":"source"},"geometry":{"type":"Point","coordinates":[77.66598452113855,12.92082249623711]}},{"type":"Feature","properties":{"id":"source-toSilkBoard-bellandur","kind":"source"},"geometry":{"type":"Point","coordinates":[77.67904573362942,12.926962812656324]}},{"type":"Feature","properties":{"id":"source-toSilkBoard-kadubeesanahalli","kind":"source"},"geometry":{"type":"Point","coordinates":[77.69520812004977,12.939086381577463]}},{"type":"Feature","properties":{"id":"source-toSilkBoard-marathahalli","kind":"source"},"geometry":{"type":"Point","coordinates":[77.7011743,12.9567622]}},{"type":"Feature","properties":{"id":"sink-toMarathahalli-agara","kind":"sink"},"geometry":{"type":"Point","coordinates":[77.6501825,12.9245437]}},{"type":"Feature","properties":{"id":"sink-toMarathahalli-iblur","kind":"sink"},"geometry":{"type":"Point","coordinates":[77.6655585,12.9209342]}},{"type":"Feature","properties":{"id":"sink-toMarathahalli-bellandur","kind":"sink"},"geometry":{"type":"Point","coordinates":[77.6786437,12.9270879]}},{"type":"Feature","properties":{"id":"sink-toMarathahalli-kadubeesanahalli","kind":"sink"},"geometry":{"type":"Point","coordinates":[77.6946419,12.9388739]}},{"type":"Feature","properties":{"id":"sink-toMarathahalli-marathahalli","kind":"sink"},"geometry":{"type":"Point","coordinates":[77.701043,12.9567742]}},{"type":"Feature","properties":{"id":"sink-toSilkBoard-silkBoard","kind":"sink"},"geometry":{"type":"Point","coordinates":[77.6229259,12.9173954]}},{"type":"Feature","properties":{"id":"sink-toSilkBoard-agara","kind":"sink"},"geometry":{"type":"Point","coordinates":[77.6501883,12.9243697]}},{"type":"Feature","properties":{"id":"sink-toSilkBoard-iblur","kind":"sink"},"geometry":{"type":"Point","coordinates":[77.665695,12.9208011]}},{"type":"Feature","properties":{"id":"sink-toSilkBoard-bellandur","kind":"sink"},"geometry":{"type":"Point","coordinates":[77.6787585,12.9269214]}},{"type":"Feature","properties":{"id":"sink-toSilkBoard-kadubeesanahalli","kind":"sink"},"geometry":{"type":"Point","coordinates":[77.6949622,12.9389359]}}]}
